[{"OBJECT_NAME":"WARATAH SEED-1","OBJECT_ID":"2024-149B","EPOCH":"2026-03-09T19:21:48.743424","MEAN_MOTION":15.33303417,"ECCENTRICITY":0.00017261,"INCLINATION":97.3737,"RA_OF_ASC_NODE":149.4647,"ARG_OF_PERICENTER":177.0754,"MEAN_ANOMALY":183.0499,"EPHEMERIS_TYPE":0,"CLASSIFICATION_TYPE":"U","NORAD_CAT_ID":60469,"ELEMENT_SET_NO":999,"REV_AT_EPOCH":8687,"BSTAR":0.00046860168,"MEAN_MOTION_DOT":0.00015015,"MEAN_MOTION_DDOT":0},{"OBJECT_NAME":"TRANSPORTER-5 OBJECT V","OBJECT_ID":"2022-057V","EPOCH":"2026-03-09T22:32:39.603264","MEAN_MOTION":15.36038689,"ECCENTRICITY":0.00071239,"INCLINATION":97.6463,"RA_OF_ASC_NODE":213.1013,"ARG_OF_PERICENTER":92.6453,"MEAN_ANOMALY":267.5606,"EPHEMERIS_TYPE":0,"CLASSIFICATION_TYPE":"U","NORAD_CAT_ID":52751,"ELEMENT_SET_NO":999,"REV_AT_EPOCH":21046,"BSTAR":0.00039927859,"MEAN_MOTION_DOT":0.00013948,"MEAN_MOTION_DDOT":0}]
